RAY 1.0                 
1 62627U 25009U   26068.84026028  .00005065  00000+0  23775-3 0  9993
2 62627  97.4036 148.9866 0007290 261.8547  98.1862 15.20062713 63580
FGN-100-D2              
1 66299U 25248G   26068.00382769  .00006346  00000+0  30466-3 0  9990
2 66299  45.4006 298.0063 0005270 203.9196 156.1446 15.19697424 19279
